satname,norad_id,inclination_deg,eccentricity,mean_motion_rev_per_day,perigee_km,apogee_km,l1,l2
STARLINK-1283,45389,53.0523,0.0010239,15.36092402,450.6784930795284,464.6768743888797,1 45389U 20019AF  25347.22659844  .00029606  00000+0  83631-3 0  9998,2 45389  53.0523 163.1558 0010239 149.5350 210.6249 15.36092402317142
STARLINK-1284,45390,53.0557,0.0001493,15.06389865,546.2086612503954,548.2765796050544,1 45390U 20019AG  25347.23650685 -.00000580  00000+0 -20080-4 0  9997,2 45390  53.0557 174.7254 0001493  91.6819 268.4341 15.06389865316974
STARLINK-1297,45395,53.0532,0.0001426,15.06395049,546.2391752135682,548.2142889499573,1 45395U 20019AM  25346.80893188  .00000188  00000+0  31525-4 0  9999,2 45395  53.0532 176.6421 0001426  88.2125 271.9027 15.06395049316091
STARLINK-1307,45397,53.0518,0.0001709,15.06398568,546.0324039968973,548.3994896341192,1 45397U 20019AP  25347.26600148  .00007427  00000+0  51696-3 0  9997,2 45397  53.0518 174.5914 0001709  70.2481 289.8692 15.06398568316805
STARLINK-1255,45399,53.0474,0.0006956,15.36055226,453.0329086271795,462.54304745663103,1 45399U 20019AR  25347.17024188 -.00001136  00000+0 -20995-4 0  9995,2 45399  53.0474 154.4910 0006956 156.8822 203.2494 15.36055226317063
STARLINK-1260,45404,53.054,0.0001486,15.06391445,546.2086672132227,548.2668885972162,1 45404U 20019AW  25347.20056692 -.00002130  00000+0 -12414-3 0  9992,2 45404  53.0540 164.8801 0001486  91.8399 268.2760 15.06391445316821
STARLINK-1263,45405,53.0525,0.0001493,15.06391734,546.2029338315024,548.2708504756984,1 45405U 20019AX  25346.92043022  .00006842  00000+0  47788-3 0  9998,2 45405  53.0525 166.1425 0001493  86.1103 274.0057 15.06391734316780
STARLINK-1265,45406,53.0544,0.000145,15.06390347,546.2369633202197,548.2453229817338,1 45406U 20019AY  25346.72875890 -.00000533  00000+0 -16923-4 0  9994,2 45406  53.0544 167.0010 0001450  95.9855 264.1300 15.06390347316754
STARLINK-1278,45408,53.0527,0.0010148,15.39360982,441.0706086712489,454.9249318009206,1 45408U 20019BA  25346.83749160  .00084120  00000+0  21043-2 0  9997,2 45408  53.0527 185.4345 0010148 130.8271 229.3614 15.39360982316510
STARLINK-1296,45412,53.0557,0.000131,15.0638344,546.3550851082318,548.1695397280855,1 45412U 20019BE  25347.19688625 -.00003371  00000+0 -20759-3 0  9995,2 45412  53.0557 164.8976 0001310  92.3662 267.7477 15.06383440316821
STARLINK-1298,45413,53.0432,0.0005865,15.61224596,380.1525784465048,388.08470431384376,1 45413U 20019BF  25347.33336806  .00220076  00000+0  24866-2 0  9996,2 45413  53.0432 125.1575 0005865  93.4230 230.6815 15.61224596  5941
STARLINK-1309,45414,53.0555,0.0001584,15.06395454,546.1285133900283,548.3224682271157,1 45414U 20019BG  25347.21163183  .00001554  00000+0  12324-3 0  9995,2 45414  53.0555 164.8344 0001584  84.9190 275.1980 15.06395454316815
STARLINK-1316,45415,53.0544,0.0001238,15.06425329,546.2765807479991,547.9912778300904,1 45415U 20019BH  25347.23742633 -.00006546  00000+0 -42066-3 0  9995,2 45415  53.0544 164.7172 0001238  82.6073 277.5057 15.06425329316853
STARLINK-1318,45416,53.0453,0.0001218,15.68194961,363.24450186941704,364.8869024476626,1 45416U 20019BJ  25347.33336806  .00199435  00000+0  17151-2 0  9992,2 45416  53.0453 114.4665 0001218 186.3620 236.6518 15.68194961  5979
STARLINK-1286,45417,53.0525,0.0005611,15.41158467,438.8619309855594,446.51626203106207,1 45417U 20019BK  25347.00009259  .00143296  00000+0  33496-2 0  9990,2 45417  53.0525 184.5971 0005611 132.7407 138.5572 15.41158467  5935
STARLINK-1308,45419,53.0534,0.0001478,15.06403507,546.1772445809847,548.2243744374755,1 45419U 20019BM  25347.00612965 -.00001022  00000+0 -49730-4 0  9998,2 45419  53.0534 195.7540 0001478  90.4255 269.6904 15.06403507316402
STARLINK-1329,45531,53.0532,0.0001277,15.24042351,492.78504634533874,494.54010395683235,1 45531U 20025A   25347.33336806  .01758458  00000+0  65361-1 0  9999,2 45531  53.0532 133.7154 0001277 113.1406 328.6745 15.24042351  5798
STARLINK-1338,45532,53.0536,0.0001318,15.06631057,545.5908243986951,547.4161596323902,1 45532U 20025B   25347.11845277  .00091937  00000+0  60731-2 0  9991,2 45532  53.0536 135.2493 0001318 144.7239 215.3838 15.06631057312047
STARLINK-1350,45535,53.0743,0.0001614,15.33682184,463.73311661896696,465.9420288110405,1 45535U 20025E   25346.99274790  .00017391  00000+0  53661-3 0  9992,2 45535  53.0743  79.5422 0001614  93.1462 266.9724 15.33682184312847
STARLINK-1362,45538,53.0551,0.0001121,15.06397623,546.4425107204934,547.9951755005186,1 45538U 20025H   25347.15075212  .00002008  00000+0  15363-3 0  9998,2 45538  53.0551 134.8253 0001121  89.6278 270.4839 15.06397623312053
STARLINK-1368,45540,53.0533,0.0001306,15.06389546,546.339143421802,548.1480528340335,1 45540U 20025K   25346.69098353 -.00000669  00000+0 -26016-4 0  9991,2 45540  53.0533 137.1715 0001306  88.1381 271.9758 15.06389546311970
STARLINK-1371,45542,53.0566,0.0001197,15.06390445,546.4118750641164,548.0698105196798,1 45542U 20025M   25347.12592342 -.00002474  00000+0 -14728-3 0  9991,2 45542  53.0566 135.2151 0001197  93.1392 266.9734 15.06390445312044
STARLINK-1372,45543,53.0526,0.0001775,15.06401478,545.977779519867,548.436276649837,1 45543U 20025N   25346.69836956  .00001028  00000+0  87932-4 0  9995,2 45543  53.0526 137.1380 0001775  96.9257 263.1934 15.06401478311071
STARLINK-1373,45544,53.0559,0.0001334,15.06392243,546.3114874589774,548.1591767971877,1 45544U 20025P   25347.11486513 -.00001333  00000+0 -70626-4 0  9997,2 45544  53.0559 135.2645 0001334  89.8880 270.2262 15.06392243312045
STARLINK-1294,45551,53.0451,0.0001308,15.68420548,362.53740069263495,364.3009917935715,1 45551U 20025W   25347.33336806  .00064418  00000+0  56136-3 0  9998,2 45551  53.0451  49.8645 0001308 129.9768 332.3661 15.68420548  5923
STARLINK-1325,45554,53.0511,0.0009368,15.78442119,328.5653061917774,341.14276619719203,1 45554U 20025Z   25347.33336806  .00205176  00000+0  11346-2 0  9992,2 45554  53.0511  41.0150 0009368  19.5292  75.9818 15.78442119  5774
STARLINK-1327,45555,53.0553,0.0001147,15.06413973,546.3744004692062,547.9630656043646,1 45555U 20025AA  25347.08720831 -.00002450  00000+0 -14559-3 0  9992,2 45555  53.0553 115.3908 0001147  92.5585 267.5536 15.06413973312314
STARLINK-1356,45564,53.0553,2.41e-05,15.06350537,547.1962545036895,547.5300636113561,1 45564U 20025AK  25347.15725383  .00006108  00000+0  42915-3 0  9996,2 45564  53.0553 115.0761 0000241 169.2469 190.8526 15.06350537312329
STARLINK-1357,45565,53.0585,0.00042,15.39473787,444.79747275796126,450.53114585777985,1 45565U 20025AL  25347.33336806  .00125698  00000+0  31150-2 0  9999,2 45565  53.0585  90.4956 0004200 158.0312 153.5560 15.39473787  5848
STARLINK-1361,45567,53.0558,0.0001345,15.06390704,546.3085857728347,548.1715121990119,1 45567U 20025AN  25346.64491049 -.00001033  00000+0 -50449-4 0  9997,2 45567  53.0558 117.3752 0001345  85.2900 274.8242 15.06390704312255
STARLINK-1363,45568,53.0492,0.0005358,15.49587328,414.2910457830585,421.57371373040587,1 45568U 20025AP  25347.29945759  .00152073  00000+0  26620-2 0  9993,2 45568  53.0492 100.3228 0005358 246.4817 113.5628 15.49587328312545
STARLINK-1366,45569,53.0497,0.0004852,15.4667005,423.17377882264464,429.77697467304006,1 45569U 20025AQ  25347.33336806  .00149980  00000+0  29073-2 0  9994,2 45569  53.0497 100.2686 0004852 261.4301 172.2564 15.46670050  5903
STARLINK-1376,45570,53.0535,0.0001015,15.0639695,546.5179819373334,547.9238295922041,1 45570U 20025AR  25346.77390991 -.00001068  00000+0 -52857-4 0  9992,2 45570  53.0535 116.8001 0001015  84.1069 276.0036 15.06396950312268
STARLINK-1320,45572,53.0544,0.0004194,15.49275843,415.9926045899774,421.6939116304802,1 45572U 20025AT  25347.33076436  .00106181  00000+0  18930-2 0  9994,2 45572  53.0544  45.7733 0004194 119.6666 240.4760 15.49275843313332
STARLINK-1321,45573,53.0566,0.0001165,15.06384027,546.4537045050229,548.0673221256257,1 45573U 20025AU  25347.02548835 -.00001879  00000+0 -10735-3 0  9994,2 45573  53.0566 105.6699 0001165  91.6952 268.4170 15.06384027312147
STARLINK-1328,45576,53.0451,0.0002077,15.87626706,307.54986507605645,310.32767635121127,1 45576U 20025AX  25347.33336806  .00309170  00000+0  10981-2 0  9999,2 45576  53.0451  58.9041 0002077 205.7592 350.9272 15.87626706  5999
STARLINK-1331,45578,53.0539,0.0001212,15.0638099,546.4304621562878,548.1091807698103,1 45578U 20025AZ  25346.60528830  .00000361  00000+0  43127-4 0  9990,2 45578  53.0539 107.5553 0001212  85.5930 274.5197 15.06380990312392
STARLINK-1333,45580,53.0555,0.0001728,15.06325534,546.2430552351216,548.6365345754411,1 45580U 20025BB  25347.07618750  .00013954  00000+0  95570-3 0  9996,2 45580  53.0555 115.4382 0001728  71.6498 288.4679 15.06325534312312
STARLINK-1335,45581,53.0528,0.0001124,15.06395078,546.4482323269585,548.0050540739494,1 45581U 20025BC  25346.61634772 -.00002030  00000+0 -11748-3 0  9998,2 45581  53.0528 107.5075 0001124  90.0054 270.1064 15.06395078312380
STARLINK-1337,45582,53.0548,0.0001223,15.06382747,546.4174598074051,548.1114129987491,1 45582U 20025BD  25346.63846026 -.00001628  00000+0 -90463-4 0  9992,2 45582  53.0548 107.4084 0001223  99.2500 260.8627 15.06382747312389
STARLINK-1347,45586,53.0507,0.0003806,15.38265002,448.64043855505224,453.83896009857926,1 45586U 20025BH  25347.33336806  .00091755  00000+0  23788-2 0  9996,2 45586  53.0507  81.2334 0003806 158.8803  18.9610 15.38265002  5834
STARLINK-1360,45588,53.0395,0.0004621,15.90195911,298.64739808890045,304.8209350210309,1 45588U 20025BK  25347.33336806  .00273886  38627-4  89413-3 0  9994,2 45588  53.0395 345.2110 0004621  49.2955 171.0468 15.90195911  6015
STARLINK-1364,45589,53.0551,0.0001136,15.06392509,546.4477946652005,548.0212390738334,1 45589U 20025BL  25347.04022222 -.00000841  00000+0 -37609-4 0  9998,2 45589  53.0551 105.6058 0001136  91.6828 268.4291 15.06392509312448
